CTC1_L_00291001-01
1 38193U 23454PF  26070.40834491  .00000000  00000+0  00000-0 0  9999
2 38193  85.0000   0.0000 0000000   0.0000   0.0000 15.18623435    18
CTC1_L_00291001-02
1 38194U 22254IM  26070.40834491  .00000000  00000+0  00000-0 0  9997
2 38194  85.0000   0.0000 0000000   0.0000  90.0000 15.18623435    18
CTC1_L_00291001-03
1 38195U 26162XG  26070.40834491  .00000000  00000+0  00000-0 0  9990
2 38195  85.0000   0.0000 0000000   0.0000 180.0000 15.18623435    19
CTC1_L_00291001-04
1 38196U 24083FA  26070.40834491  .00000000  00000+0  00000-0 0  9991
2 38196  85.0000   0.0000 0000000   0.0000 270.0000 15.18623435    10
CTC1_L_00291002-01
1 38197U 22089RQ  26070.40834491  .00000000  00000+0  00000-0 0  9996
2 38197  85.0000  12.0000 0000000   0.0000  12.0000 15.18623435    18
CTC1_L_00291002-02
1 38198U 22362FI  26070.40834491  .00000000  00000+0  00000-0 0  9991
2 38198  85.0000  12.0000 0000000   0.0000 102.0000 15.18623435    19
CTC1_L_00291002-03
1 38199U 25931V   26070.40834491  .00000000  00000+0  00000-0 0  9997
2 38199  85.0000  12.0000 0000000   0.0000 192.0000 15.18623435    19
CTC1_L_00291002-04
1 38200U 26963BY  26070.40834491  .00000000  00000+0  00000-0 0  9996
2 38200  85.0000  12.0000 0000000   0.0000 282.0000 15.18623435    12
CTC1_L_00291003-01
1 38201U 23286VF  26070.40834491  .00000000  00000+0  00000-0 0  9992
2 38201  85.0000  24.0000 0000000   0.0000  24.0000 15.18623435    10
CTC1_L_00291003-02
1 38202U 25939ZT  26070.40834491  .00000000  00000+0  00000-0 0  9990
2 38202  85.0000  24.0000 0000000   0.0000 114.0000 15.18623435    11
CTC1_L_00291003-03
1 38203U 25941EN  26070.40834491  .00000000  00000+0  00000-0 0  9994
2 38203  85.0000  24.0000 0000000   0.0000 204.0000 15.18623435    12
CTC1_L_00291003-04
1 38204U 23015AI  26070.40834491  .00000000  00000+0  00000-0 0  9995
2 38204  85.0000  24.0000 0000000   0.0000 294.0000 15.18623435    12
CTC1_L_00291004-01
1 38205U 24649XV  26070.40834491  .00000000  00000+0  00000-0 0  9990
2 38205  85.0000  36.0000 0000000   0.0000  36.0000 15.18623435    10
CTC1_L_00291004-02
1 38206U 25816RK  26070.40834491  .00000000  00000+0  00000-0 0  9998
2 38206  85.0000  36.0000 0000000   0.0000 126.0000 15.18623435    11
CTC1_L_00291004-03
1 38207U 24772IN  26070.40834491  .00000000  00000+0  00000-0 0  9999
2 38207  85.0000  36.0000 0000000   0.0000 216.0000 15.18623435    12
CTC1_L_00291004-04
1 38208U 22175WK  26070.40834491  .00000000  00000+0  00000-0 0  9995
2 38208  85.0000  36.0000 0000000   0.0000 306.0000 15.18623435    13
CTC1_L_00291005-01
1 38209U 22985UI  26070.40834491  .00000000  00000+0  00000-0 0  9995
2 38209  85.0000  48.0000 0000000   0.0000  48.0000 15.18623435    10
CTC1_L_00291005-02
1 38210U 25833SM  26070.40834491  .00000000  00000+0  00000-0 0  9992
2 38210  85.0000  48.0000 0000000   0.0000 138.0000 15.18623435    12
CTC1_L_00291005-03
1 38211U 26735IK  26070.40834491  .00000000  00000+0  00000-0 0  9995
2 38211  85.0000  48.0000 0000000   0.0000 228.0000 15.18623435    13
CTC1_L_00291005-04
1 38212U 24644YX  26070.40834491  .00000000  00000+0  00000-0 0  9993
2 38212  85.0000  48.0000 0000000   0.0000 318.0000 15.18623435    14
CTC1_L_00291006-01
1 38213U 23025HY  26070.40834491  .00000000  00000+0  00000-0 0  9996
2 38213  85.0000  60.0000 0000000   0.0000  60.0000 15.18623435    13
CTC1_L_00291006-02
1 38214U 23418EG  26070.40834491  .00000000  00000+0  00000-0 0  9993
2 38214  85.0000  60.0000 0000000   0.0000 150.0000 15.18623435    14
CTC1_L_00291006-03
1 38215U 24376RQ  26070.40834491  .00000000  00000+0  00000-0 0  9998
2 38215  85.0000  60.0000 0000000   0.0000 240.0000 15.18623435    15
CTC1_L_00291006-04
1 38216U 23478GJ  26070.40834491  .00000000  00000+0  00000-0 0  9991
2 38216  85.0000  60.0000 0000000   0.0000 330.0000 15.18623435    16
CTC1_L_00291007-01
1 38217U 25867YU  26070.40834491  .00000000  00000+0  00000-0 0  9996
2 38217  85.0000  72.0000 0000000   0.0000  72.0000 15.18623435    13
CTC1_L_00291007-02
1 38218U 26775YU  26070.40834491  .00000000  00000+0  00000-0 0  9996
2 38218  85.0000  72.0000 0000000   0.0000 162.0000 15.18623435    14
CTC1_L_00291007-03
1 38219U 22981BD  26070.40834491  .00000000  00000+0  00000-0 0  9992
2 38219  85.0000  72.0000 0000000   0.0000 252.0000 15.18623435    15
CTC1_L_00291007-04
1 38220U 25719CG  26070.40834491  .00000000  00000+0  00000-0 0  9996
2 38220  85.0000  72.0000 0000000   0.0000 342.0000 15.18623435    17
CTC1_L_00291008-01
1 38221U 26368VC  26070.40834491  .00000000  00000+0  00000-0 0  9998
2 38221  85.0000  84.0000 0000000   0.0000  84.0000 15.18623435    14
CTC1_L_00291008-02
1 38222U 25772YI  26070.40834491  .00000000  00000+0  00000-0 0  9997
2 38222  85.0000  84.0000 0000000   0.0000 174.0000 15.18623435    15
CTC1_L_00291008-03
1 38223U 22310BO  26070.40834491  .00000000  00000+0  00000-0 0  9993
2 38223  85.0000  84.0000 0000000   0.0000 264.0000 15.18623435    16
CTC1_L_00291008-04
1 38224U 26593ZC  26070.40834491  .00000000  00000+0  00000-0 0  9991
2 38224  85.0000  84.0000 0000000   0.0000 354.0000 15.18623435    17
CTC1_L_00291009-01
1 38225U 22077EU  26070.40834491  .00000000  00000+0  00000-0 0  9995
2 38225  85.0000  96.0000 0000000   0.0000  96.0000 15.18623435    14
CTC1_L_00291009-02
1 38226U 22505CF  26070.40834491  .00000000  00000+0  00000-0 0  9992
2 38226  85.0000  96.0000 0000000   0.0000 186.0000 15.18623435    15
CTC1_L_00291009-03
1 38227U 22042PL  26070.40834491  .00000000  00000+0  00000-0 0  9999
2 38227  85.0000  96.0000 0000000   0.0000 276.0000 15.18623435    16
CTC1_L_00291009-04
1 38228U 26265KB  26070.40834491  .00000000  00000+0  00000-0 0  9991
2 38228  85.0000  96.0000 0000000   0.0000   6.0000 15.18623435    18
CTC1_L_00291010-01
1 38229U 22130WP  26070.40834491  .00000000  00000+0  00000-0 0  9999
2 38229  85.0000 108.0000 0000000   0.0000 108.0000 15.18623435    16
CTC1_L_00291010-02
1 38230U 25867DS  26070.40834491  .00000000  00000+0  00000-0 0  9991
2 38230  85.0000 108.0000 0000000   0.0000 198.0000 15.18623435    17
CTC1_L_00291010-03
1 38231U 26170XK  26070.40834491  .00000000  00000+0  00000-0 0  9990
2 38231  85.0000 108.0000 0000000   0.0000 288.0000 15.18623435    18
CTC1_L_00291010-04
1 38232U 25442NA  26070.40834491  .00000000  00000+0  00000-0 0  9992
2 38232  85.0000 108.0000 0000000   0.0000  18.0000 15.18623435    10
CTC1_L_00291011-01
1 38233U 26660OS  26070.40834491  .00000000  00000+0  00000-0 0  9996
2 38233  85.0000 120.0000 0000000   0.0000 120.0000 15.18623435    19
CTC1_L_00291011-02
1 38234U 24080HH  26070.40834491  .00000000  00000+0  00000-0 0  9991
2 38234  85.0000 120.0000 0000000   0.0000 210.0000 15.18623435    10
CTC1_L_00291011-03
1 38235U 23402QK  26070.40834491  .00000000  00000+0  00000-0 0  9999
2 38235  85.0000 120.0000 0000000   0.0000 300.0000 15.18623435    11
CTC1_L_00291011-04
1 38236U 23546FV  26070.40834491  .00000000  00000+0  00000-0 0  9999
2 38236  85.0000 120.0000 0000000   0.0000  30.0000 15.18623435    12
CTC1_L_00291012-01
1 38237U 26317FP  26070.40834491  .00000000  00000+0  00000-0 0  9999
2 38237  85.0000 132.0000 0000000   0.0000 132.0000 15.18623435    19
CTC1_L_00291012-02
1 38238U 25981SS  26070.40834491  .00000000  00000+0  00000-0 0  9996
2 38238  85.0000 132.0000 0000000   0.0000 222.0000 15.18623435    10
CTC1_L_00291012-03
1 38239U 22046DH  26070.40834491  .00000000  00000+0  00000-0 0  9996
2 38239  85.0000 132.0000 0000000   0.0000 312.0000 15.18623435    11
CTC1_L_00291012-04
1 38240U 23906QC  26070.40834491  .00000000  00000+0  00000-0 0  9994
2 38240  85.0000 132.0000 0000000   0.0000  42.0000 15.18623435    13
CTC1_L_00291013-01
1 38241U 24823VL  26070.40834491  .00000000  00000+0  00000-0 0  9994
2 38241  85.0000 144.0000 0000000   0.0000 144.0000 15.18623435    10
CTC1_L_00291013-02
1 38242U 25021QL  26070.40834491  .00000000  00000+0  00000-0 0  9996
2 38242  85.0000 144.0000 0000000   0.0000 234.0000 15.18623435    11
CTC1_L_00291013-03
1 38243U 23196PM  26070.40834491  .00000000  00000+0  00000-0 0  9998
2 38243  85.0000 144.0000 0000000   0.0000 324.0000 15.18623435    12
CTC1_L_00291013-04
1 38244U 22623E   26070.40834491  .00000000  00000+0  00000-0 0  9993
2 38244  85.0000 144.0000 0000000   0.0000  54.0000 15.18623435    13
CTC1_L_00291014-01
1 38245U 25740HI  26070.40834491  .00000000  00000+0  00000-0 0  9997
2 38245  85.0000 156.0000 0000000   0.0000 156.0000 15.18623435    10
CTC1_L_00291014-02
1 38246U 26405NH  26070.40834491  .00000000  00000+0  00000-0 0  9997
2 38246  85.0000 156.0000 0000000   0.0000 246.0000 15.18623435    11
CTC1_L_00291014-03
1 38247U 24916JM  26070.40834491  .00000000  00000+0  00000-0 0  9993
2 38247  85.0000 156.0000 0000000   0.0000 336.0000 15.18623435    12
CTC1_L_00291014-04
1 38248U 22474KH  26070.40834491  .00000000  00000+0  00000-0 0  9991
2 38248  85.0000 156.0000 0000000   0.0000  66.0000 15.18623435    13
CTC1_L_00291015-01
1 38249U 26790LL  26070.40834491  .00000000  00000+0  00000-0 0  9997
2 38249  85.0000 168.0000 0000000   0.0000 168.0000 15.18623435    10
CTC1_L_00291015-02
1 38250U 26840YK  26070.40834491  .00000000  00000+0  00000-0 0  9995
2 38250  85.0000 168.0000 0000000   0.0000 258.0000 15.18623435    12
CTC1_L_00291015-03
1 38251U 24516R   26070.40834491  .00000000  00000+0  00000-0 0  9994
2 38251  85.0000 168.0000 0000000   0.0000 348.0000 15.18623435    13
CTC1_L_00291015-04
1 38252U 24556CM  26070.40834491  .00000000  00000+0  00000-0 0  9999
2 38252  85.0000 168.0000 0000000   0.0000  78.0000 15.18623435    14
CTC1_L_00291016-01
1 38253U 26667ZF  26070.40834491  .00000000  00000+0  00000-0 0  9995
2 38253  85.0000 180.0000 0000000   0.0000 180.0000 15.18623435    13
CTC1_L_00291016-02
1 38254U 24479CK  26070.40834491  .00000000  00000+0  00000-0 0  9995
2 38254  85.0000 180.0000 0000000   0.0000 270.0000 15.18623435    14
